{
    "links": {
        "self": "http://www.neowsapp.com/rest/v1/neo/3802066?api_key=iIulBulltgU6a56xZRHN4H3l9WmuAYTsLGpBGhQ2"
    },
    "id": "3802066",
    "neo_reference_id": "3802066",
    "name": "(2018 FZ3)",
    "designation": "2018 FZ3",
    "nasa_jpl_url": "http://ssd.jpl.nasa.gov/sbdb.cgi?sstr=3802066",
    "absolute_magnitude_h": 27.6,
    "estimated_diameter": {
        "kilometers": {
            "estimated_diameter_min": 0.0080270317,
            "estimated_diameter_max": 0.0179489885
        },
        "meters": {
            "estimated_diameter_min": 8.0270316728,
            "estimated_diameter_max": 17.948988478
        },
        "miles": {
            "estimated_diameter_min": 0.0049877647,
            "estimated_diameter_max": 0.0111529809
        },
        "feet": {
            "estimated_diameter_min": 26.3354065935,
            "estimated_diameter_max": 58.8877593581
        }
    },
    "is_potentially_hazardous_asteroid": false,
    "close_approach_data": [
        {
            "close_approach_date": "2018-03-23",
            "close_approach_date_full": "2018-Mar-23 15:00",
            "epoch_date_close_approach": 1521817200000,
            "relative_velocity": {
                "kilometers_per_second": "15.0669572658",
                "kilometers_per_hour": "54241.046156772",
                "miles_per_hour": "33703.2767078009"
            },
            "miss_distance": {
                "astronomical": "0.0036758046",
                "lunar": "1.4298879894",
                "kilometers": "549892.538696202",
                "miles": "341687.3792915076"
            },
            "orbiting_body": "Moon"
        },
        {
            "close_approach_date": "2018-03-23",
            "close_approach_date_full": "2018-Mar-23 16:19",
            "epoch_date_close_approach": 1521821940000,
            "relative_velocity": {
                "kilometers_per_second": "14.1094403424",
                "kilometers_per_hour": "50793.9852328096",
                "miles_per_hour": "31561.4071020199"
            },
            "miss_distance": {
                "astronomical": "0.0012876061",
                "lunar": "0.5008787729",
                "kilometers": "192623.129959007",
                "miles": "119690.4628360166"
            },
            "orbiting_body": "Earth"
        },
        {
            "close_approach_date": "2153-03-17",
            "close_approach_date_full": "2153-Mar-17 23:57",
            "epoch_date_close_approach": 5781542220000,
            "relative_velocity": {
                "kilometers_per_second": "17.0833835434",
                "kilometers_per_hour": "61500.1807563876",
                "miles_per_hour": "38213.8206483232"
            },
            "miss_distance": {
                "astronomical": "0.1344188633",
                "lunar": "52.2889378237",
                "kilometers": "20108775.637501171",
                "miles": "12495013.7796553198"
            },
            "orbiting_body": "Earth"
        },
        {
            "close_approach_date": "2154-12-06",
            "close_approach_date_full": "2154-Dec-06 12:56",
            "epoch_date_close_approach": 5835848160000,
            "relative_velocity": {
                "kilometers_per_second": "4.5016870392",
                "kilometers_per_hour": "16206.0733411963",
                "miles_per_hour": "10069.8237380339"
            },
            "miss_distance": {
                "astronomical": "1.618107144",
                "lunar": "629.443679016",
                "kilometers": "242065382.17418328",
                "miles": "150412453.764878064"
            },
            "orbiting_body": "Juptr"
        }
    ],
    "orbital_data": {
        "orbit_id": "2",
        "orbit_determination_date": "2018-03-23 06:29:30",
        "first_observation_date": "2018-03-21",
        "last_observation_date": "2018-03-22",
        "data_arc_in_days": 1,
        "observations_used": 33,
        "orbit_uncertainty": "7",
        "minimum_orbit_intersection": ".000164205",
        "jupiter_tisserand_invariant": "3.346",
        "epoch_osculation": "2459000.5",
        "eccentricity": ".6132876529176474",
        "semi_major_axis": "2.246082779110728",
        "inclination": "7.409916499018316",
        "ascending_node_longitude": "182.9472797598959",
        "orbital_period": "1229.52415154806",
        "perihelion_distance": ".868587943251163",
        "perihelion_argument": "48.70473028434156",
        "aphelion_distance": "3.623577614970293",
        "perihelion_time": "2459465.325427719562",
        "mean_anomaly": "223.9008808665104",
        "mean_motion": ".2927962005030434",
        "equinox": "J2000",
        "orbit_class": {
            "orbit_class_type": "APO",
            "orbit_class_description": "Near-Earth asteroid orbits which cross the Earth’s orbit similar to that of 1862 Apollo",
            "orbit_class_range": "a (semi-major axis) > 1.0 AU; q (perihelion) < 1.017 AU"
        }
    },
    "is_sentry_object": false
}